YAOGAN7
1 36110U 09069A   18094.46830295  .00000092  00000-0  21610-4 0  9999
2 36110  98.2433 263.2039 0022933 263.9236  95.9376 14.75116508447829
